NORAD_CAT_ID,OBJECT_NAME,OBJECT_TYPE,EPOCH,MEAN_MOTION,ECCENTRICITY,INCLINATION,RA_OF_ASC_NODE,ARG_OF_PERICENTER,MEAN_ANOMALY,BSTAR,MEAN_MOTION_DOT,MEAN_MOTION_DDOT,TLE_LINE0,TLE_LINE1,TLE_LINE2,SEMIMAJOR_AXIS,PERIOD,APOGEE,PERIGEE,DECAYED
53407.0,STARLINK-4537,PAYLOAD,2023-06-05 12:52:49,15.08844014,8.17e-05,53.2171,310.1279,92.0185,268.0901,8.9008e-05,1.129e-05,0.0,0 STARLINK-4537,1 53407U 22097V   23156.53668478  .00001129  00000-0  89008-4 0  9995,2 53407  53.2171 310.1279 0000817  92.0185 268.0901 15.08844014 46599,6917.868,95.437,540.298,539.168,0.0
53407.0,STARLINK-4537,PAYLOAD,2023-06-05 17:38:58,15.0885124,6.99e-05,53.2171,309.2359,82.7951,277.3121,0.00012923,1.77e-05,0.0,0 STARLINK-4537,1 53407U 22097V   23156.73539957  .00001770  00000-0  12923-3 0  9999,2 53407  53.2171 309.2359 0000699  82.7951 277.3121 15.08851240 46138,6917.846,95.437,540.195,539.227,0.0
53407.0,STARLINK-4537,PAYLOAD,2023-06-05 19:14:21,15.08852271,6.92e-05,53.2171,308.9386,82.401,277.7061,0.00014545,2.029e-05,0.0,0 STARLINK-4537,1 53407U 22097V   23156.80163893  .00002029  00000-0  14545-3 0  9999,2 53407  53.2171 308.9386 0000692  82.4010 277.7061 15.08852271 46637,6917.843,95.437,540.187,539.229,0.0
53407.0,STARLINK-4537,PAYLOAD,2023-06-06 09:32:50,15.08837197,8.09e-05,53.2165,306.2631,65.0677,295.0399,9.119e-05,1.164e-05,0.0,0 STARLINK-4537,1 53407U 22097V   23157.39780784  .00001164  00000-0  91190-4 0  9999,2 53407  53.2165 306.2631 0000809  65.0677 295.0399 15.08837197 46233,6917.889,95.438,540.314,539.194,0.0
53407.0,STARLINK-4537,PAYLOAD,2023-06-06 12:43:37,15.08833698,8.03e-05,53.217,305.668,72.5172,287.5908,0.00010884,1.445e-05,0.0,0 STARLINK-4537,1 53407U 22097V   23157.53029152  .00001445  00000-0  10884-3 0  9992,2 53407  53.2170 305.6680 0000803  72.5172 287.5908 15.08833698 46743,6917.9,95.438,540.32,539.209,0.0
53407.0,STARLINK-4537,PAYLOAD,2023-06-06 17:29:46,15.08840425,7.97e-05,53.217,304.7763,70.9672,289.1407,0.00011099,1.479e-05,0.0,0 STARLINK-4537,1 53407U 22097V   23157.72900648  .00001479  00000-0  11099-3 0  9997,2 53407  53.2170 304.7763 0000797  70.9672 289.1407 15.08840425 46775,6917.879,95.438,540.295,539.193,0.0
53407.0,STARLINK-4537,PAYLOAD,2023-06-07 12:34:24,15.08839833,7.35e-05,53.2169,301.2083,74.8745,285.2329,8.334e-06,-1.55e-06,0.0,0 STARLINK-4537,1 53407U 22097V   23158.52388902 -.00000155  00000-0  83340-5 0  9990,2 53407  53.2169 301.2083 0000735  74.8745 285.2329 15.08839833 46890,6917.881,95.438,540.254,539.237,0.0
53407.0,STARLINK-4537,PAYLOAD,2023-06-08 12:25:10,15.08836715,8.79e-05,53.2163,296.7457,87.1975,272.9117,7.0108e-05,8.28e-06,0.0,0 STARLINK-4537,1 53407U 22097V   23159.51748825  .00000828  00000-0  70108-4 0  9997,2 53407  53.2163 296.7457 0000879  87.1975 272.9117 15.08836715 47040,6917.89,95.438,540.364,539.147,0.0
53407.0,STARLINK-4537,PAYLOAD,2023-06-08 15:35:56,15.08840858,8.52e-05,53.2164,296.1512,92.0555,268.0534,9.4132e-05,1.211e-05,0.0,0 STARLINK-4537,1 53407U 22097V   23159.64996487  .00001211  00000-0  94132-4 0  9990,2 53407  53.2164 296.1512 0000852  92.0555 268.0534 15.08840858 46576,6917.878,95.438,540.332,539.153,0.0
53407.0,STARLINK-4537,PAYLOAD,2023-06-08 18:46:43,15.08841717,0.0001006,53.2162,295.5552,105.9777,254.1326,0.00011942,1.613e-05,0.0,0 STARLINK-4537,1 53407U 22097V   23159.78244347  .00001613  00000-0  11942-3 0  9999,2 53407  53.2162 295.5552 0001006 105.9777 254.1326 15.08841717 47080,6917.875,95.437,540.436,539.044,0.0
53407.0,STARLINK-4537,PAYLOAD,2023-06-10 08:55:58,15.08836459,8.7e-05,53.2165,288.4182,99.2588,260.8503,2.9865e-05,1.88e-06,0.0,0 STARLINK-4537,1 53407U 22097V   23161.37221032  .00000188  00000-0  29865-4 0  9993,2 53407  53.2165 288.4182 0000870  99.2588 260.8503 15.08836459 46836,6917.891,95.438,540.358,539.154,0.0
53407.0,STARLINK-4537,PAYLOAD,2023-06-10 12:06:45,15.08836192,9.02e-05,53.2175,287.8249,94.2342,265.8753,1.8996e-05,1.5e-07,0.0,0 STARLINK-4537,1 53407U 22097V   23161.50469135  .00000015  00000-0  18996-4 0  9998,2 53407  53.2175 287.8249 0000902  94.2342 265.8753 15.08836192 47346,6917.892,95.438,540.381,539.133,0.0
53407.0,STARLINK-4537,PAYLOAD,2023-06-10 15:17:31,15.08841446,8.25e-05,53.2175,287.2296,94.9602,265.1484,-1.1022e-05,-4.63e-06,0.0,0 STARLINK-4537,1 53407U 22097V   23161.63716906 -.00000463  00000-0 -11022-4 0  9995,2 53407  53.2175 287.2296 0000825  94.9602 265.1484 15.08841446 47366,6917.876,95.437,540.312,539.17,0.0
53407.0,STARLINK-4537,PAYLOAD,2023-06-11 10:22:09,15.08835208,8.29e-05,53.217,283.6634,85.7792,274.3295,2.2215e-05,6.6e-07,0.0,0 STARLINK-4537,1 53407U 22097V   23162.43205384  .00000066  00000-0  22215-4 0  9990,2 53407  53.2170 283.6634 0000829  85.7792 274.3295 15.08835208 47483,6917.895,95.438,540.334,539.187,0.0
53407.0,STARLINK-4537,PAYLOAD,2023-06-11 15:08:18,15.08845012,7.43e-05,53.2163,282.7724,93.4209,266.6868,4.185e-05,3.79e-06,0.0,0 STARLINK-4537,1 53407U 22097V   23162.63076723  .00000379  00000-0  41850-4 0  9998,2 53407  53.2163 282.7724 0000743  93.4209 266.6868 15.08845012 47023,6917.865,95.437,540.244,539.216,0.0
53407.0,STARLINK-4537,PAYLOAD,2023-06-11 18:19:04,15.08848166,7.8e-05,53.2165,282.1765,95.5153,264.5928,7.1543e-05,8.51e-06,0.0,0 STARLINK-4537,1 53407U 22097V   23162.76324393  .00000851  00000-0  71543-4 0  9998,2 53407  53.2165 282.1765 0000780  95.5153 264.5928 15.08848166 47539,6917.855,95.437,540.26,539.181,0.0
53407.0,STARLINK-4537,PAYLOAD,2023-06-13 03:42:11,15.08837501,8.6e-05,53.2168,275.9314,106.8104,253.2983,-3.047e-07,-2.93e-06,0.0,0 STARLINK-4537,1 53407U 22097V   23164.15429588 -.00000293  00000-0 -30470-6 0  9993,2 53407  53.2168 275.9314 0000860 106.8104 253.2983 15.08837501 47259,6917.888,95.438,540.348,539.158,0.0
53407.0,STARLINK-4537,PAYLOAD,2023-06-14 08:19:07,15.08843163,9.02e-05,53.2167,270.58,86.2908,273.8188,9.8671e-05,1.283e-05,0.0,0 STARLINK-4537,1 53407U 22097V   23165.34660955  .00001283  00000-0  98671-4 0  9993,2 53407  53.2167 270.5800 0000902  86.2908 273.8188 15.08843163 47435,6917.871,95.437,540.36,539.112,0.0
53407.0,STARLINK-4537,PAYLOAD,2023-06-15 06:34:31,15.08838006,0.0001519,53.2165,266.4194,76.2152,283.9009,4.652e-05,4.52e-06,0.0,0 STARLINK-4537,1 53407U 22097V   23166.27397516  .00000452  00000-0  46520-4 0  9999,2 53407  53.2165 266.4194 0001519  76.2152 283.9009 15.08838006 47577,6917.886,95.438,540.802,538.701,0.0
53407.0,STARLINK-4537,PAYLOAD,2023-06-15 12:56:04,15.08831936,0.0001057,53.2162,265.2274,87.7808,272.3305,-2.7348e-06,-3.31e-06,0.0,0 STARLINK-4537,1 53407U 22097V   23166.53894002 -.00000331  00000-0 -27348-5 0  9996,2 53407  53.2162 265.2274 0001057  87.7808 272.3305 15.08831936 48108,6917.905,95.438,540.501,539.039,0.0
53407.0,STARLINK-4537,PAYLOAD,2023-06-16 00:03:45,15.08841262,0.0001013,53.2172,263.1457,89.9834,270.1274,1.0876e-05,-1.15e-06,0.0,0 STARLINK-4537,1 53407U 22097V   23167.00261348 -.00000115  00000-0  10876-4 0  9996,2 53407  53.2172 263.1457 0001013  89.9834 270.1274 15.08841262 47680,6917.877,95.437,540.442,539.041,0.0
53407.0,STARLINK-4537,PAYLOAD,2023-06-16 09:36:03,15.08849894,0.0001018,53.2158,261.3607,92.6241,267.4867,6.372e-05,7.27e-06,0.0,0 STARLINK-4537,1 53407U 22097V   23167.40004567  .00000727  00000-0  63720-4 0  9992,2 53407  53.2158 261.3607 0001018  92.6241 267.4867 15.08849894 47742,6917.85,95.437,540.419,539.011,0.0
53407.0,STARLINK-4537,PAYLOAD,2023-06-16 12:46:49,15.0885353,0.0001182,53.2167,260.7672,83.9604,276.1523,0.0001001,1.306e-05,0.0,0 STARLINK-4537,1 53407U 22097V   23167.53252246  .00001306  00000-0  10010-3 0  9992,2 53407  53.2167 260.7672 0001182  83.9604 276.1523 15.08853530 48250,6917.839,95.437,540.522,538.886,0.0
53407.0,STARLINK-4537,PAYLOAD,2023-06-16 15:57:36,15.08852813,0.0001254,53.2167,260.1729,86.5311,273.5825,0.0001314,1.805e-05,0.0,0 STARLINK-4537,1 53407U 22097V   23167.66500120  .00001805  00000-0  13140-3 0  9994,2 53407  53.2167 260.1729 0001254  86.5311 273.5825 15.08852813 48272,6917.841,95.437,540.574,538.839,0.0
53407.0,STARLINK-4537,PAYLOAD,2023-06-17 06:16:06,15.08823416,8.33e-05,53.2168,257.4971,77.3716,282.7369,1.4635e-05,-5.5e-07,0.0,0 STARLINK-4537,1 53407U 22097V   23168.26118396 -.00000055  00000-0  14635-4 0  9999,2 53407  53.2168 257.4971 0000833  77.3716 282.7369 15.08823416 47877,6917.931,95.439,540.372,539.22,0.0
53407.0,STARLINK-4537,PAYLOAD,2023-06-17 12:37:39,15.08823167,8.69e-05,53.2168,256.307,90.7917,269.3175,1.0033e-05,-1.28e-06,0.0,0 STARLINK-4537,1 53407U 22097V   23168.52614674 -.00000128  00000-0  10033-4 0  9997,2 53407  53.2168 256.3070 0000869  90.7917 269.3175 15.08823167 48405,6917.932,95.439,540.398,539.196,0.0
53407.0,STARLINK-4537,PAYLOAD,2023-06-18 06:06:52,15.08838708,8.53e-05,53.2163,253.0347,99.2678,260.8411,8.5327e-06,-1.52e-06,0.0,0 STARLINK-4537,1 53407U 22097V   23169.25478000 -.00000152  00000-0  85327-5 0  9995,2 53407  53.2163 253.0347 0000853  99.2678 260.8411 15.08838708 48026,6917.884,95.438,540.339,539.159,0.0
53407.0,STARLINK-4537,PAYLOAD,2023-06-18 12:28:25,15.08845587,8.55e-05,53.2164,251.8461,95.2161,264.8928,8.0115e-05,9.88e-06,0.0,0 STARLINK-4537,1 53407U 22097V   23169.51973413  .00000988  00000-0  80115-4 0  9997,2 53407  53.2164 251.8461 0000855  95.2161 264.8928 15.08845587 48553,6917.863,95.437,540.32,539.137,0.0
53407.0,STARLINK-4537,PAYLOAD,2023-06-19 05:57:40,15.08835201,9.17e-05,53.2157,248.5754,100.6245,259.485,0.00020548,2.984e-05,0.0,0 STARLINK-4537,1 53407U 22097V   23170.24838214  .00002984  00000-0  20548-3 0  9999,2 53407  53.2157 248.5754 0000917 100.6245 259.4850 15.08835201 48170,6917.895,95.438,540.394,539.126,0.0
53407.0,STARLINK-4537,PAYLOAD,2023-06-20 05:48:27,15.08835334,9.85e-05,53.217,244.1157,99.4308,260.6795,-6.4717e-05,-1.317e-05,0.0,0 STARLINK-4537,1 53407U 22097V   23171.24198254 -.00001317  00000-0 -64717-4 0  9991,2 53407  53.2170 244.1157 0000985  99.4308 260.6795 15.08835334 48814,6917.895,95.438,540.441,539.078,0.0
